{"type": "FeatureCollection", "features": [ {"type": "Feature", "properties": {"norad_id": 57401, "name": "TIANMU-1 09", "group": "weather", "lat": 19.724178286813714, "lon": 31.93809695451875, "alt_km": 480.05982620676787, "timestamp": "2025-12-11T08:58:26.757339+00:00", "meta": {"OBJECT_NAME": "TIANMU-1 09", "OBJECT_ID": "2023-101C", "EPOCH": "2025-12-11T04:10:20.640000", "MEAN_MOTION": 15.28045874, "ECCENTRICITY": 0.0006798, "INCLINATION": 97.2823, "RA_OF_ASC_NODE": 34.3704, "ARG_OF_PERICENTER": 88.1123, "MEAN_ANOMALY": 272.0895, "EPHEMERIS_TYPE": 0, "CLASSIFICATION_TYPE": "U", "NORAD_CAT_ID": 57401, "ELEMENT_SET_NO": 999, "REV_AT_EPOCH": 13291, "BSTAR": 0.00043878, "MEAN_MOTION_DOT": 0.00011944, "MEAN_MOTION_DDOT": 0}, "tle": {"line1": "1 57401U 23101C   25345.17385000  .00011944  00000+0  43878-3 0  9998", "line2": "2 57401  97.2823  34.3704 0006798  88.1123 272.0895 15.28045874132917"}}, "geometry": {"type": "Point", "coordinates": [31.93809695451875, 19.724178286813714]}}, {"type": "Feature", "properties": {"norad_id": 57402, "name": "TIANMU-1 10", "group": "weather", "lat": -12.16244861281587, "lon": -146.16684863614162, "alt_km": 487.71645062783045, "timestamp": "2025-12-11T08:58:26.757349+00:00", "meta": {"OBJECT_NAME": "TIANMU-1 10", "OBJECT_ID": "2023-101D", "EPOCH": "2025-12-11T03:25:18.106752", "MEAN_MOTION": 15.28036242, "ECCENTRICITY": 0.0008586, "INCLINATION": 97.2904, "RA_OF_ASC_NODE": 35.1879, "ARG_OF_PERICENTER": 88.0536, "MEAN_ANOMALY": 272.1686, "EPHEMERIS_TYPE": 0, "CLASSIFICATION_TYPE": "U", "NORAD_CAT_ID": 57402, "ELEMENT_SET_NO": 999, "REV_AT_EPOCH": 13290, "BSTAR": 0.00042868, "MEAN_MOTION_DOT": 0.00011669, "MEAN_MOTION_DDOT": 0}, "tle": {"line1": "1 57402U 23101D   25345.14257068  .00011669  00000+0  42868-3 0  9990", "line2": "2 57402  97.2904  35.1879 0008586  88.0536 272.1686 15.28036242132901"}}, "geometry": {"type": "Point", "coordinates": [-146.16684863614162, -12.16244861281587]}}, {"type": "Feature", "properties": {"norad_id": 57490, "name": "FENGYUN 3F", "group": "weather", "lat": -78.63609306876833, "lon": -176.00625493094384, "alt_km": 833.4887120435642, "timestamp": "2025-12-11T08:58:26.757369+00:00", "meta": {"OBJECT_NAME": "FENGYUN 3F", "OBJECT_ID": "2023-111A", "EPOCH": "2025-12-11T04:21:29.937600", "MEAN_MOTION": 14.19892903, "ECCENTRICITY": 6.56e-05, "INCLINATION": 98.7085, "RA_OF_ASC_NODE": 53.5001, "ARG_OF_PERICENTER": 98.8982, "MEAN_ANOMALY": 261.2269, "EPHEMERIS_TYPE": 0, "CLASSIFICATION_TYPE": "U", "NORAD_CAT_ID": 57490, "ELEMENT_SET_NO": 999, "REV_AT_EPOCH": 12218, "BSTAR": 7.8532e-05, "MEAN_MOTION_DOT": 1.23e-06, "MEAN_MOTION_DDOT": 0}, "tle": {"line1": "1 57490U 23111A   25345.18159650  .00000123  00000+0  78532-4 0  9991", "line2": "2 57490  98.7085  53.5001 0000656  98.8982 261.2269 14.19892903122187"}}, "geometry": {"type": "Point", "coordinates": [-176.00625493094384, -78.63609306876833]}}, {"type": "Feature", "properties": {"norad_id": 58584, "name": "ARKTIKA-M 2", "group": "weather", "lat": 34.82810829691317, "lon": -164.3923731035993, "alt_km": 19468.903762005117, "timestamp": "2025-12-11T08:58:26.757394+00:00", "meta": {"OBJECT_NAME": "ARKTIKA-M 2", "OBJECT_ID": "2023-198A", "EPOCH": "2025-12-08T20:10:13.977120", "MEAN_MOTION": 2.0060476, "ECCENTRICITY": 0.68646991, "INCLINATION": 63.2247, "RA_OF_ASC_NODE": 175.3152, "ARG_OF_PERICENTER": 268.1185, "MEAN_ANOMALY": 18.8267, "EPHEMERIS_TYPE": 0, "CLASSIFICATION_TYPE": "U", "NORAD_CAT_ID": 58584, "ELEMENT_SET_NO": 999, "REV_AT_EPOCH": 1450, "BSTAR": 0, "MEAN_MOTION_DOT": 1.66e-06, "MEAN_MOTION_DDOT": 0}, "tle": {"line1": "1 58584U 23198A   25342.84043955  .00000166  00000+0  00000+0 0  9998", "line2": "2 58584  63.2247 175.3152 6864699 268.1185  18.8267  2.00604760 14506"}}, "geometry": {"type": "Point", "coordinates": [-164.3923731035993, 34.82810829691317]}}, {"type": "Feature", "properties": {"norad_id": 58645, "name": "TIANMU-1 11", "group": "weather", "lat": 27.943967573908807, "lon": 1.0888615020351775, "alt_km": 489.2564322550206, "timestamp": "2025-12-11T08:58:26.757415+00:00", "meta": {"OBJECT_NAME": "TIANMU-1 11", "OBJECT_ID": "2023-205A", "EPOCH": "2025-12-11T04:07:30.847584", "MEAN_MOTION": 15.24567591, "ECCENTRICITY": 0.0008035, "INCLINATION": 97.361, "RA_OF_ASC_NODE": 4.8225, "ARG_OF_PERICENTER": 316.9709, "MEAN_ANOMALY": 43.0899, "EPHEMERIS_TYPE": 0, "CLASSIFICATION_TYPE": "U", "NORAD_CAT_ID": 58645, "ELEMENT_SET_NO": 999, "REV_AT_EPOCH": 10885, "BSTAR": 0.00037525, "MEAN_MOTION_DOT": 9.184e-05, "MEAN_MOTION_DDOT": 0}, "tle": {"line1": "1 58645U 23205A   25345.17188481  .00009184  00000+0  37525-3 0  9993", "line2": "2 58645  97.3610   4.8225 0008035 316.9709  43.0899 15.24567591108858"}}, "geometry": {"type": "Point", "coordinates": [1.0888615020351775, 27.943967573908807]}}, {"type": "Feature", "properties": {"norad_id": 58646, "name": "TIANMU-1 12", "group": "weather", "lat": -60.16672481398581, "lon": 171.80105856427073, "alt_km": 497.36621727152124, "timestamp": "2025-12-11T08:58:26.757433+00:00", "meta": {"OBJECT_NAME": "TIANMU-1 12", "OBJECT_ID": "2023-205B", "EPOCH": "2025-12-11T04:46:08.669280", "MEAN_MOTION": 15.24449979, "ECCENTRICITY": 0.0005936, "INCLINATION": 97.3599, "RA_OF_ASC_NODE": 4.6548, "ARG_OF_PERICENTER": 298.2406, "MEAN_ANOMALY": 61.8232, "EPHEMERIS_TYPE": 0, "CLASSIFICATION_TYPE": "U", "NORAD_CAT_ID": 58646, "ELEMENT_SET_NO": 999, "REV_AT_EPOCH": 10884, "BSTAR": 0.00041049, "MEAN_MOTION_DOT": 0.00010015, "MEAN_MOTION_DDOT": 0}, "tle": {"line1": "1 58646U 23205B   25345.19871145  .00010015  00000+0  41049-3 0  9993", "line2": "2 58646  97.3599   4.6548 0005936 298.2406  61.8232 15.24449979108841"}}, "geometry": {"type": "Point", "coordinates": [171.80105856427073, -60.16672481398581]}}, {"type": "Feature", "properties": {"norad_id": 58647, "name": "TIANMU-1 13", "group": "weather", "lat": 56.05080649713805, "lon": -6.046260853160698, "alt_km": 490.30259919176206, "timestamp": "2025-12-11T08:58:26.757454+00:00", "meta": {"OBJECT_NAME": "TIANMU-1 13", "OBJECT_ID": "2023-205C", "EPOCH": "2025-12-11T03:59:59.778240", "MEAN_MOTION": 15.24491905, "ECCENTRICITY": 0.0006035, "INCLINATION": 97.3626, "RA_OF_ASC_NODE": 4.8236, "ARG_OF_PERICENTER": 274.523, "MEAN_ANOMALY": 85.5318, "EPHEMERIS_TYPE": 0, "CLASSIFICATION_TYPE": "U", "NORAD_CAT_ID": 58647, "ELEMENT_SET_NO": 999, "REV_AT_EPOCH": 10883, "BSTAR": 0.00039139, "MEAN_MOTION_DOT": 9.557e-05, "MEAN_MOTION_DDOT": 0}, "tle": {"line1": "1 58647U 23205C   25345.16666410  .00009557  00000+0  39139-3 0  9994", "line2": "2 58647  97.3626   4.8236 0006035 274.5230  85.5318 15.24491905108835"}}, "geometry": {"type": "Point", "coordinates": [-6.046260853160698, 56.05080649713805]}}, {"type": "Feature", "properties": {"norad_id": 58648, "name": "TIANMU-1 14", "group": "weather", "lat": 31.757396565588177, "lon": -171.03615124078686, "alt_km": 493.7198812736833, "timestamp": "2025-12-11T08:58:26.757472+00:00", "meta": {"OBJECT_NAME": "TIANMU-1 14", "OBJECT_ID": "2023-205D", "EPOCH": "2025-12-11T03:36:03.983904", "MEAN_MOTION": 15.24475157, "ECCENTRICITY": 0.000687, "INCLINATION": 97.3559, "RA_OF_ASC_NODE": 4.1575, "ARG_OF_PERICENTER": 279.6602, "MEAN_ANOMALY": 80.3859, "EPHEMERIS_TYPE": 0, "CLASSIFICATION_TYPE": "U", "NORAD_CAT_ID": 58648, "ELEMENT_SET_NO": 999, "REV_AT_EPOCH": 10883, "BSTAR": 0.00040403, "MEAN_MOTION_DOT": 9.865e-05, "MEAN_MOTION_DDOT": 0}, "tle": {"line1": "1 58648U 23205D   25345.15004611  .00009865  00000+0  40403-3 0  9991", "line2": "2 58648  97.3559   4.1575 0006870 279.6602  80.3859 15.24475157108830"}}, "geometry": {"type": "Point", "coordinates": [-171.03615124078686, 31.757396565588177]}}, {"type": "Feature", "properties": {"norad_id": 58660, "name": "TIANMU-1 19", "group": "weather", "lat": 26.125143710240437, "lon": 92.73941760316433, "alt_km": 483.214038735382, "timestamp": "2025-12-11T08:58:26.757489+00:00", "meta": {"OBJECT_NAME": "TIANMU-1 19", "OBJECT_ID": "2023-208A", "EPOCH": "2025-12-11T04:08:36.070944", "MEAN_MOTION": 15.27802854, "ECCENTRICITY": 0.0004036, "INCLINATION": 97.4386, "RA_OF_ASC_NODE": 96.2125, "ARG_OF_PERICENTER": 260.2283, "MEAN_ANOMALY": 99.85, "EPHEMERIS_TYPE": 0, "CLASSIFICATION_TYPE": "U", "NORAD_CAT_ID": 58660, "ELEMENT_SET_NO": 999, "REV_AT_EPOCH": 10858, "BSTAR": 0.00052486, "MEAN_MOTION_DOT": 0.00014192, "MEAN_MOTION_DDOT": 0}, "tle": {"line1": "1 58660U 23208A   25345.17263971  .00014192  00000+0  52486-3 0  9999", "line2": "2 58660  97.4386  96.2125 0004036 260.2283  99.8500 15.27802854108580"}}, "geometry": {"type": "Point", "coordinates": [92.73941760316433, 26.125143710240437]}}, {"type": "Feature", "properties": {"norad_id": 58661, "name": "TIANMU-1 20", "group": "weather", "lat": 81.13827694399471, "lon": -26.28573189300142, "alt_km": 475.68901754314174, "timestamp": "2025-12-11T08:58:26.757505+00:00", "meta": {"OBJECT_NAME": "TIANMU-1 20", "OBJECT_ID": "2023-208B", "EPOCH": "2025-12-11T05:25:09.369696", "MEAN_MOTION": 15.28995113, "ECCENTRICITY": 0.0006287, "INCLINATION": 97.4323, "RA_OF_ASC_NODE": 96.7118, "ARG_OF_PERICENTER": 272.4437, "MEAN_ANOMALY": 87.6083, "EPHEMERIS_TYPE": 0, "CLASSIFICATION_TYPE": "U", "NORAD_CAT_ID": 58661, "ELEMENT_SET_NO": 999, "REV_AT_EPOCH": 10866, "BSTAR": 0.00049396, "MEAN_MOTION_DOT": 0.00013852, "MEAN_MOTION_DDOT": 0}, "tle": {"line1": "1 58661U 23208B   25345.22580289  .00013852  00000+0  49396-3 0  9998", "line2": "2 58661  97.4323  96.7118 0006287 272.4437  87.6083 15.28995113108667"}}, "geometry": {"type": "Point", "coordinates": [-26.28573189300142, 81.13827694399471]}}]}